COSMOS 1892             
1 18421U 87088A   25304.84612729  .00268566  25392-4  82660-3 0  9993
2 18421  82.4686  90.8725 0005205 315.0237  45.0614 15.91711778 84612
SL-14 R/B               
1 18749U 88001B   25304.54132549  .00000690  00000+0  77360-4 0  9994
2 18749  82.5112 316.8471 0016808 308.7671  51.2042 14.85355431 22855
COSMOS 1933             
1 18958U 88020A   25304.73165914  .00005556  00000+0  28280-3 0  9992
2 18958  82.5172  18.3651 0003084 292.4029  67.6877 15.16620823 30676
SL-3 R/B                
1 19046U 88032B   25304.81750727  .00007935  00000+0  38920-3 0  9990
2 19046  97.5041 283.8573 0025929 326.8963  33.0647 15.18088448 32542
SL-16 R/B               
1 19120U 88039B   25304.82088800 -.00000085  00000+0 -17197-4 0  9992
2 19120  71.0155 341.0351 0021882 184.0061 176.0893 14.19586095940096
COSMOS 1953             
1 19210U 88050A   25304.68833064  .00007641  00000+0  29321-3 0  9993
2 19210  82.5062 287.7603 0010803 208.8484 151.2158 15.26261699 18095
SL-8 R/B                
1 19257U 88053B   25304.62504727  .00000364  00000+0  12661-3 0  9996
2 19257  74.0487 350.3412 0020570 206.4518 269.1310 14.38820927958035
COSMOS 1975             
1 19573U 88093A   25304.81408670  .00012909  00000+0  50816-3 0  9994
2 19573  82.5199 246.7647 0009271 266.2704  93.7473 15.25468349999730
SL-14 R/B               
1 19574U 88093B   25304.67601854  .00000590  00000+0  65199-4 0  9992
2 19574  82.5314 163.1402 0022267 103.8588 316.4462 14.85485886981887
SL-16 R/B               
1 19650U 88102B   25304.78323060  .00000164  00000+0  10690-3 0  9992
2 19650  71.0003  62.7197 0015405 214.9042 145.1073 14.16130282908649
INTERCOSMOS 24          
1 20261U 89080A   25304.63407622  .00000645  00000+0  19080-3 0  9995
2 20261  82.6095 188.3312 1187630 232.2199 116.5465 12.59348674650551
SL-14 R/B               
1 20262U 89080C   25304.81782998  .00000338  00000+0  92229-4 0  9994
2 20262  82.5911 255.9240 1231504 119.3404 253.6363 12.50370474644044
