CCSDS_OMM_VERS = 2.0
CREATION_DATE  = 
ORIGINATOR     = 

OBJECT_NAME    = COSMOS 1892
OBJECT_ID      = 1987-088A
CENTER_NAME    = EARTH
REF_FRAME      = TEME
TIME_SYSTEM    = UTC
MEAN_ELEMENT_THEORY = SGP/SGP4

EPOCH          = 2025-10-31T20:18:25.397856
MEAN_MOTION    = 15.91711778
ECCENTRICITY   = .0005205
INCLINATION    = 82.4686
RA_OF_ASC_NODE = 90.8725
ARG_OF_PERICENTER = 315.0237
MEAN_ANOMALY   = 45.0614

EPHEMERIS_TYPE = 0
CLASSIFICATION_TYPE = U
NORAD_CAT_ID   = 18421
ELEMENT_SET_NO = 999
REV_AT_EPOCH   = 8461
BSTAR          = .8266E-3
MEAN_MOTION_DOT = .268566E-2
MEAN_MOTION_DDOT = .25392E-4

CCSDS_OMM_VERS = 2.0
CREATION_DATE  = 
ORIGINATOR     = 

OBJECT_NAME    = SL-14 R/B
OBJECT_ID      = 1988-001B
CENTER_NAME    = EARTH
REF_FRAME      = TEME
TIME_SYSTEM    = UTC
MEAN_ELEMENT_THEORY = SGP/SGP4

EPOCH          = 2025-10-31T12:59:30.522336
MEAN_MOTION    = 14.85355431
ECCENTRICITY   = .0016808
INCLINATION    = 82.5112
RA_OF_ASC_NODE = 316.8471
ARG_OF_PERICENTER = 308.7671
MEAN_ANOMALY   = 51.2042

EPHEMERIS_TYPE = 0
CLASSIFICATION_TYPE = U
NORAD_CAT_ID   = 18749
ELEMENT_SET_NO = 999
REV_AT_EPOCH   = 2285
BSTAR          = .7736E-4
MEAN_MOTION_DOT = .69E-5
MEAN_MOTION_DDOT = 0

CCSDS_OMM_VERS = 2.0
CREATION_DATE  = 
ORIGINATOR     = 

OBJECT_NAME    = COSMOS 1933
OBJECT_ID      = 1988-020A
CENTER_NAME    = EARTH
REF_FRAME      = TEME
TIME_SYSTEM    = UTC
MEAN_ELEMENT_THEORY = SGP/SGP4

EPOCH          = 2025-10-31T17:33:35.349696
MEAN_MOTION    = 15.16620823
ECCENTRICITY   = .0003084
INCLINATION    = 82.5172
RA_OF_ASC_NODE = 18.3651
ARG_OF_PERICENTER = 292.4029
MEAN_ANOMALY   = 67.6877

EPHEMERIS_TYPE = 0
CLASSIFICATION_TYPE = U
NORAD_CAT_ID   = 18958
ELEMENT_SET_NO = 999
REV_AT_EPOCH   = 3067
BSTAR          = .2828E-3
MEAN_MOTION_DOT = .5556E-4
MEAN_MOTION_DDOT = 0

CCSDS_OMM_VERS = 2.0
CREATION_DATE  = 
ORIGINATOR     = 

OBJECT_NAME    = SL-3 R/B
OBJECT_ID      = 1988-032B
CENTER_NAME    = EARTH
REF_FRAME      = TEME
TIME_SYSTEM    = UTC
MEAN_ELEMENT_THEORY = SGP/SGP4

EPOCH          = 2025-10-31T19:37:12.628128
MEAN_MOTION    = 15.18088448
ECCENTRICITY   = .0025929
INCLINATION    = 97.5041
RA_OF_ASC_NODE = 283.8573
ARG_OF_PERICENTER = 326.8963
MEAN_ANOMALY   = 33.0647

EPHEMERIS_TYPE = 0
CLASSIFICATION_TYPE = U
NORAD_CAT_ID   = 19046
ELEMENT_SET_NO = 999
REV_AT_EPOCH   = 3254
BSTAR          = .3892E-3
MEAN_MOTION_DOT = .7935E-4
MEAN_MOTION_DDOT = 0

CCSDS_OMM_VERS = 2.0
CREATION_DATE  = 
ORIGINATOR     = 

OBJECT_NAME    = SL-16 R/B
OBJECT_ID      = 1988-039B
CENTER_NAME    = EARTH
REF_FRAME      = TEME
TIME_SYSTEM    = UTC
MEAN_ELEMENT_THEORY = SGP/SGP4

EPOCH          = 2025-10-31T19:42:04.723200
MEAN_MOTION    = 14.19586095
ECCENTRICITY   = .0021882
INCLINATION    = 71.0155
RA_OF_ASC_NODE = 341.0351
ARG_OF_PERICENTER = 184.0061
MEAN_ANOMALY   = 176.0893

EPHEMERIS_TYPE = 0
CLASSIFICATION_TYPE = U
NORAD_CAT_ID   = 19120
ELEMENT_SET_NO = 999
REV_AT_EPOCH   = 94009
BSTAR          = -.17197E-4
MEAN_MOTION_DOT = -.85E-6
MEAN_MOTION_DDOT = 0

CCSDS_OMM_VERS = 2.0
CREATION_DATE  = 
ORIGINATOR     = 

OBJECT_NAME    = COSMOS 1953
OBJECT_ID      = 1988-050A
CENTER_NAME    = EARTH
REF_FRAME      = TEME
TIME_SYSTEM    = UTC
MEAN_ELEMENT_THEORY = SGP/SGP4

EPOCH          = 2025-10-31T16:31:11.767296
MEAN_MOTION    = 15.26261699
ECCENTRICITY   = .0010803
INCLINATION    = 82.5062
RA_OF_ASC_NODE = 287.7603
ARG_OF_PERICENTER = 208.8484
MEAN_ANOMALY   = 151.2158

EPHEMERIS_TYPE = 0
CLASSIFICATION_TYPE = U
NORAD_CAT_ID   = 19210
ELEMENT_SET_NO = 999
REV_AT_EPOCH   = 1809
BSTAR          = .29321E-3
MEAN_MOTION_DOT = .7641E-4
MEAN_MOTION_DDOT = 0

CCSDS_OMM_VERS = 2.0
CREATION_DATE  = 
ORIGINATOR     = 

OBJECT_NAME    = SL-8 R/B
OBJECT_ID      = 1988-053B
CENTER_NAME    = EARTH
REF_FRAME      = TEME
TIME_SYSTEM    = UTC
MEAN_ELEMENT_THEORY = SGP/SGP4

EPOCH          = 2025-10-31T15:00:04.084128
MEAN_MOTION    = 14.38820927
ECCENTRICITY   = .002057
INCLINATION    = 74.0487
RA_OF_ASC_NODE = 350.3412
ARG_OF_PERICENTER = 206.4518
MEAN_ANOMALY   = 269.1310

EPHEMERIS_TYPE = 0
CLASSIFICATION_TYPE = U
NORAD_CAT_ID   = 19257
ELEMENT_SET_NO = 999
REV_AT_EPOCH   = 95803
BSTAR          = .12661E-3
MEAN_MOTION_DOT = .364E-5
MEAN_MOTION_DDOT = 0

CCSDS_OMM_VERS = 2.0
CREATION_DATE  = 
ORIGINATOR     = 

OBJECT_NAME    = COSMOS 1975
OBJECT_ID      = 1988-093A
CENTER_NAME    = EARTH
REF_FRAME      = TEME
TIME_SYSTEM    = UTC
MEAN_ELEMENT_THEORY = SGP/SGP4

EPOCH          = 2025-10-31T19:32:17.090880
MEAN_MOTION    = 15.25468349
ECCENTRICITY   = .0009271
INCLINATION    = 82.5199
RA_OF_ASC_NODE = 246.7647
ARG_OF_PERICENTER = 266.2704
MEAN_ANOMALY   = 93.7473

EPHEMERIS_TYPE = 0
CLASSIFICATION_TYPE = U
NORAD_CAT_ID   = 19573
ELEMENT_SET_NO = 999
REV_AT_EPOCH   = 99973
BSTAR          = .50816E-3
MEAN_MOTION_DOT = .12909E-3
MEAN_MOTION_DDOT = 0

CCSDS_OMM_VERS = 2.0
CREATION_DATE  = 
ORIGINATOR     = 

OBJECT_NAME    = SL-14 R/B
OBJECT_ID      = 1988-093B
CENTER_NAME    = EARTH
REF_FRAME      = TEME
TIME_SYSTEM    = UTC
MEAN_ELEMENT_THEORY = SGP/SGP4

EPOCH          = 2025-10-31T16:13:28.001856
MEAN_MOTION    = 14.85485886
ECCENTRICITY   = .0022267
INCLINATION    = 82.5314
RA_OF_ASC_NODE = 163.1402
ARG_OF_PERICENTER = 103.8588
MEAN_ANOMALY   = 316.4462

EPHEMERIS_TYPE = 0
CLASSIFICATION_TYPE = U
NORAD_CAT_ID   = 19574
ELEMENT_SET_NO = 999
REV_AT_EPOCH   = 98188
BSTAR          = .65199E-4
MEAN_MOTION_DOT = .59E-5
MEAN_MOTION_DDOT = 0

CCSDS_OMM_VERS = 2.0
CREATION_DATE  = 
ORIGINATOR     = 

OBJECT_NAME    = SL-16 R/B
OBJECT_ID      = 1988-102B
CENTER_NAME    = EARTH
REF_FRAME      = TEME
TIME_SYSTEM    = UTC
MEAN_ELEMENT_THEORY = SGP/SGP4

EPOCH          = 2025-10-31T18:47:51.123840
MEAN_MOTION    = 14.16130282
ECCENTRICITY   = .0015405
INCLINATION    = 71.0003
RA_OF_ASC_NODE = 62.7197
ARG_OF_PERICENTER = 214.9042
MEAN_ANOMALY   = 145.1073

EPHEMERIS_TYPE = 0
CLASSIFICATION_TYPE = U
NORAD_CAT_ID   = 19650
ELEMENT_SET_NO = 999
REV_AT_EPOCH   = 90864
BSTAR          = .1069E-3
MEAN_MOTION_DOT = .164E-5
MEAN_MOTION_DDOT = 0

CCSDS_OMM_VERS = 2.0
CREATION_DATE  = 
ORIGINATOR     = 

OBJECT_NAME    = INTERCOSMOS 24
OBJECT_ID      = 1989-080A
CENTER_NAME    = EARTH
REF_FRAME      = TEME
TIME_SYSTEM    = UTC
MEAN_ELEMENT_THEORY = SGP/SGP4

EPOCH          = 2025-10-31T15:13:04.185408
MEAN_MOTION    = 12.59348674
ECCENTRICITY   = .118763
INCLINATION    = 82.6095
RA_OF_ASC_NODE = 188.3312
ARG_OF_PERICENTER = 232.2199
MEAN_ANOMALY   = 116.5465

EPHEMERIS_TYPE = 0
CLASSIFICATION_TYPE = U
NORAD_CAT_ID   = 20261
ELEMENT_SET_NO = 999
REV_AT_EPOCH   = 65055
BSTAR          = .1908E-3
MEAN_MOTION_DOT = .645E-5
MEAN_MOTION_DDOT = 0

CCSDS_OMM_VERS = 2.0
CREATION_DATE  = 
ORIGINATOR     = 

OBJECT_NAME    = SL-14 R/B
OBJECT_ID      = 1989-080C
CENTER_NAME    = EARTH
REF_FRAME      = TEME
TIME_SYSTEM    = UTC
MEAN_ELEMENT_THEORY = SGP/SGP4

EPOCH          = 2025-10-31T19:37:40.510272
MEAN_MOTION    = 12.50370474
ECCENTRICITY   = .1231504
INCLINATION    = 82.5911
RA_OF_ASC_NODE = 255.9240
ARG_OF_PERICENTER = 119.3404
MEAN_ANOMALY   = 253.6363

EPHEMERIS_TYPE = 0
CLASSIFICATION_TYPE = U
NORAD_CAT_ID   = 20262
ELEMENT_SET_NO = 999
REV_AT_EPOCH   = 64404
BSTAR          = .92229E-4
MEAN_MOTION_DOT = .338E-5
MEAN_MOTION_DDOT = 0

